     3.03           N                   R                   RINEX VERSION / TYPE
Convert 2.6.7       NovAtel             20220606 075817 UTC PGM / RUN BY / DATE 
                                                            COMMENT             
                                                            END OF HEADER       
R14 2021 12 03 06 45 00  .716531649232D-04  .000000000000D+00  .457182000000D+06
     -.101640903320D+05 -.798168182373D+00  .000000000000D+00  .000000000000D+00
      .482020068359D+04 -.302845191956D+01 -.372529029846D-08 -.700000000000D+01
      .229057490234D+05  .282243728638D+00 -.186264514923D-08  .000000000000D+00
R06 2021 11 27 06 15 00 -.181253999472D-04 -.181898940355D-11  .457182000000D+06
     -.858145019531D+04 -.205458927155D+01  .000000000000D+00  .000000000000D+00
      .157413461914D+05  .139989471436D+01 -.931322574615D-09 -.400000000000D+01
      .181147050781D+05 -.219018363953D+01 -.279396772385D-08  .000000000000D+00
R18 2021 11 24 03 45 00  .982182100415D-04  .909494701773D-12  .457182000000D+06
      .129347856445D+05  .101687145233D+01  .279396772385D-08  .000000000000D+00
      .104154780273D+05  .245506954193D+01 -.186264514923D-08 -.300000000000D+01
      .193989516602D+05 -.199406242371D+01  .000000000000D+00  .000000000000D+00
R13 2021 12 03 05 45 00 -.643152743578D-04  .000000000000D+00  .457182000000D+06
     -.108339414063D+05 -.514411926270D-01  .000000000000D+00  .000000000000D+00
     -.472164892578D+04 -.309646511078D+01 -.465661287308D-08 -.200000000000D+01
      .225905820313D+05 -.670928001404D+00 -.931322574615D-09  .000000000000D+00
R16 2021 12 03 06 45 00 -.260965898633D-04 -.909494701773D-12  .457182000000D+06
      .849307226562D+04  .230948448181D+00  .279396772385D-08  .000000000000D+00
      .237834663086D+05  .366074562073D+00  .558793544769D-08 -.100000000000D+01
     -.305203759766D+04  .353303623199D+01 -.372529029846D-08  .000000000000D+00
R15 2021 12 03 06 45 00  .998396426439D-04  .000000000000D+00  .457182000000D+06
     -.211017382813D+04 -.412017822266D+00  .186264514923D-08  .000000000000D+00
      .204468720703D+05 -.202834606171D+01  .931322574615D-09  .000000000000D+00
      .151217602539D+05  .268883514404D+01 -.372529029846D-08  .000000000000D+00
R05 2021 12 03 06 45 00  .835359096527D-04  .909494701773D-12  .457182000000D+06
     -.178765917969D+04 -.195302963257D+01  .931322574615D-09  .000000000000D+00
      .151020122070D+05  .201435089111D+01  .000000000000D+00  .100000000000D+01
      .204732954102D+05 -.165922641754D+01 -.372529029846D-08  .000000000000D+00
R24 2021 11 24 09 15 00  .682873651385D-04  .181898940355D-11  .457182000000D+06
     -.233597709961D+05  .140986728668D+01  .931322574615D-09  .000000000000D+00
     -.766650390625D+01 -.126287460327D+00 -.931322574615D-09  .200000000000D+01
      .102937377930D+05  .320410919189D+01  .000000000000D+00  .000000000000D+00
R23 2021 11 24 09 15 00 -.210590660572D-04 -.909494701773D-12  .457182000000D+06
     -.131063164062D+05  .281767272949D+01  .000000000000D+00  .000000000000D+00
     -.671820263672D+04 -.484296798706D+00 -.279396772385D-08  .300000000000D+01
      .208257368164D+05  .161630439758D+01  .000000000000D+00  .000000000000D+00
R17 2021 11 24 03 45 00  .477612949908D-03  .272848410532D-11  .457182000000D+06
      .108058071289D+05  .462231636047D+00  .000000000000D+00  .000000000000D+00
      .224069780273D+05  .640559196472D+00 -.931322574615D-09  .400000000000D+01
      .555066210938D+04 -.349828720093D+01  .000000000000D+00  .000000000000D+00
R03 2021 12 03 06 45 00  .474937260151D-04  .000000000000D+00  .457182000000D+06
     -.196973535156D+05  .105118083954D+01  .372529029846D-08  .000000000000D+00
      .129149399414D+05 -.832654953003D+00  .000000000000D+00  .500000000000D+01
     -.968010742188D+04 -.324330615997D+01  .000000000000D+00  .000000000000D+00
R04 2021 12 03 06 45 00  .117083080113D-03  .181898940355D-11  .457182000000D+06
     -.148328999023D+05 -.608346939087D+00  .279396772385D-08  .000000000000D+00
      .193644897461D+05  .835067749023D+00  .000000000000D+00  .600000000000D+01
      .745612841797D+04 -.338908958435D+01 -.186264514923D-08  .000000000000D+00
R14 2021 12 03 07 15 00  .716540962458D-04  .000000000000D+00  .457482000000D+06
     -.119829614258D+05 -.120407581329D+01 -.931322574615D-09  .000000000000D+00
     -.499603515625D+03 -.283477973938D+01 -.465661287308D-08 -.700000000000D+01
      .225229780273D+05 -.704823493958D+00  .000000000000D+00  .000000000000D+00
R15 2021 12 03 07 15 00  .998387113214D-04  .000000000000D+00  .457482000000D+06
     -.329810009766D+04 -.920866966248D+00  .931322574615D-09  .000000000000D+00
      .163526640625D+05 -.247540092468D+01 -.931322574615D-09  .000000000000D+00
      .193154414062D+05  .194066333771D+01 -.279396772385D-08  .000000000000D+00
R05 2021 12 03 07 15 00  .835377722979D-04  .909494701773D-12  .457482000000D+06
     -.474546972656D+04 -.132281780243D+01  .186264514923D-08  .000000000000D+00
      .186467939453D+05  .187662315369D+01  .000000000000D+00  .100000000000D+01
      .167333437500D+05 -.246934890747D+01 -.279396772385D-08  .000000000000D+00
R04 2021 12 03 07 15 00  .117085874081D-03  .181898940355D-11  .457482000000D+06
     -.153164023438D+05  .475139617920D-01  .372529029846D-08  .000000000000D+00
      .203572973633D+05  .233584403992D+00  .000000000000D+00  .600000000000D+01
      .114623242188D+04 -.357637214661D+01 -.931322574615D-09  .000000000000D+00
R16 2021 12 03 07 15 00 -.260993838310D-04 -.909494701773D-12  .458382000000D+06
      .866451025391D+04 -.782108306885D-01  .372529029846D-08  .000000000000D+00
      .236764956055D+05 -.470862388611D+00  .372529029846D-08 -.100000000000D+01
      .334354492188D+04  .352661514282D+01 -.372529029846D-08  .000000000000D+00
R06 2021 12 03 07 15 00 -.192588195205D-04 -.181898940355D-11  .458982000000D+06
      .107177128906D+05 -.187600517273D+01 -.931322574615D-09  .000000000000D+00
      .398162988281D+04  .249750804901D+01  .000000000000D+00 -.400000000000D+01
      .227870532227D+05  .442980766296D+00 -.279396772385D-08  .000000000000D+00
R14 2021 12 03 07 45 00  .716494396329D-04  .000000000000D+00  .459282000000D+06
     -.144033276367D+05 -.145178318024D+01 -.279396772385D-08  .000000000000D+00
     -.522950781250D+04 -.238324069977D+01 -.465661287308D-08 -.700000000000D+01
      .204009609375D+05 -.163773536682D+01  .000000000000D+00  .000000000000D+00
R16 2021 12 03 07 45 00 -.261021777987D-04 -.909494701773D-12  .459282000000D+06
      .809176611328D+04 -.585656166077D+00  .279396772385D-08  .000000000000D+00
      .221707055664D+05 -.117138195038D+01  .186264514923D-08 -.100000000000D+01
      .947826123047D+04  .324507808685D+01 -.372529029846D-08  .000000000000D+00
R15 2021 12 03 07 45 00  .998387113214D-04  .000000000000D+00  .459282000000D+06
     -.544011328125D+04 -.145414638519D+01  .000000000000D+00  .000000000000D+00
      .117089218750D+05 -.263483142853D+01 -.186264514923D-08  .000000000000D+00
      .220182617188D+05  .104306411743D+01 -.279396772385D-08  .000000000000D+00
R05 2021 12 03 07 45 00  .835387036204D-04  .909494701773D-12  .459282000000D+06
     -.654576220703D+04 -.685758590698D+00  .279396772385D-08  .000000000000D+00
      .216879384766D+05  .145727252960D+01 -.931322574615D-09  .100000000000D+01
      .116983789062D+05 -.308873558044D+01 -.279396772385D-08  .000000000000D+00
R04 2021 12 03 07 45 00  .117088668048D-03  .181898940355D-11  .459282000000D+06
     -.147722973633D+05  .520457267761D+00  .372529029846D-08  .000000000000D+00
      .201065458984D+05 -.531623840332D+00  .000000000000D+00  .600000000000D+01
     -.525232617187D+04 -.348690605164D+01  .000000000000D+00  .000000000000D+00
R06 2021 12 03 07 45 00 -.192625448108D-04 -.181898940355D-11  .459582000000D+06
      .766178369141D+04 -.149208354950D+01  .000000000000D+00  .000000000000D+00
      .872570361328D+04  .273008918762D+01  .000000000000D+00 -.400000000000D+01
      .226918149414D+05 -.548194885254D+00 -.372529029846D-08  .000000000000D+00
R24 2021 12 03 07 45 00  .695651397109D-04  .181898940355D-11  .459582000000D+06
     -.184885390625D+05  .214801883698D+01 -.279396772385D-08  .000000000000D+00
     -.786124658203D+04  .192594528198D+00 -.465661287308D-08  .200000000000D+01
      .157523203125D+05  .261901473999D+01  .931322574615D-09  .000000000000D+00
